[{"OBJECT_NAME":"OOV-CUBE (TUBSAT-30)","OBJECT_ID":"2024-128F","EPOCH":"2026-02-01T22:46:26.605920","MEAN_MOTION":15.01983595,"ECCENTRICITY":0.00568481,"INCLINATION":61.997,"RA_OF_ASC_NODE":336.8877,"ARG_OF_PERICENTER":104.7946,"MEAN_ANOMALY":255.9453,"EPHEMERIS_TYPE":0,"CLASSIFICATION_TYPE":"U","NORAD_CAT_ID":60240,"ELEMENT_SET_NO":999,"REV_AT_EPOCH":8579,"BSTAR":0.00020704644,"MEAN_MOTION_DOT":2.603e-5,"MEAN_MOTION_DDOT":0}]
